[{"OBJECT_NAME":"STARLINK-30225","OBJECT_ID":"2023-105V","EPOCH":"2026-03-09T22:00:01.999584","MEAN_MOTION":15.08265178,"ECCENTRICITY":8.441e-5,"INCLINATION":43.0005,"RA_OF_ASC_NODE":259.9799,"ARG_OF_PERICENTER":300.4111,"MEAN_ANOMALY":281.6665,"EPHEMERIS_TYPE":0,"CLASSIFICATION_TYPE":"U","NORAD_CAT_ID":57449,"ELEMENT_SET_NO":999,"REV_AT_EPOCH":557,"BSTAR":0.005112868,"MEAN_MOTION_DOT":0.000813,"MEAN_MOTION_DDOT":0},{"OBJECT_NAME":"DMSP 5D-2 F11 DEB","OBJECT_ID":"1991-082AJ","EPOCH":"2026-03-09T06:39:32.486112","MEAN_MOTION":15.08629375,"ECCENTRICITY":0.00070318,"INCLINATION":98.5181,"RA_OF_ASC_NODE":189.4283,"ARG_OF_PERICENTER":237.8685,"MEAN_ANOMALY":152.6153,"EPHEMERIS_TYPE":0,"CLASSIFICATION_TYPE":"U","NORAD_CAT_ID":28321,"ELEMENT_SET_NO":999,"REV_AT_EPOCH":14288,"BSTAR":0.0082823802,"MEAN_MOTION_DOT":0.00131946,"MEAN_MOTION_DDOT":0}]
